format  = 'OEF2.0'       ! file format
rectype = 'ML'           ! record type (1L/ML)
refsys  = ECLM J2000     ! default reference system
END_OF_HEADER
65803
! Keplerian elements: a, e, i, long. node, arg. peric., mean anomaly
 KEP   1.6446196763820746E+00  3.8365096885455274E-01   3.4078775618984  73.2078963374828 319.2985362247897  3.0040671060185645E+02
 MJD     58976.087727882 TDT
 MAG  18.048  0.150
! Non-gravitational parameters: model used, number of model parameters, dimension
 LSP   0  0    6
! PERIHELION   1.0136597441408306E+00
! APHELION   2.2755796086233184E+00
! ANODE   1.0263595854878044E-01
! DNODE   9.6414290100168798E-01
! MOID   4.1475528684606633E-02
! PERIOD   7.7036518882757571E+02
! PHA T
! VINFTY     4.9444363692709
! U_PAR 0.0
! ORB_TYPE Apollo
! RMS    5.33713E-11   1.68349E-09   2.51900E-07   5.71705E-06   5.98575E-06   2.85376E-07
 COV   2.848495088837669E-21  4.994363536654961E-20  5.245737639831881E-18
 COV   2.398335997088245E-16 -2.469743019873354E-16 -1.642457499080651E-19
 COV   2.834142861721387E-18  2.778677901765691E-16  6.907474773410654E-15
 COV  -7.992189378536098E-15  3.897518297431834E-16  6.345345364597710E-14
 COV   1.486244599036987E-13 -2.910490515791276E-13  4.623332502390840E-14
 COV   3.268463263264307E-11 -3.399067981323830E-11  3.787789694371440E-13
 COV   3.582923883537132E-11 -5.815122415611760E-13  8.143928515732268E-14
 COR   1.000000000000000E+00  5.558550359296538E-01  3.901855627807461E-01
 COR   7.860143672661208E-01 -7.730814243927745E-01 -1.078374044938768E-02
 COR   1.000000000000000E+00  6.552389500619268E-01  7.176895694916946E-01
 COR  -7.931148948396231E-01  8.112604745097148E-01  1.000000000000000E+00
 COR   1.032026509301595E-01 -1.930277573630315E-01  6.431474016388824E-01
 COR   1.000000000000000E+00 -9.932744301226949E-01  2.321651760460023E-01
 COR   1.000000000000000E+00 -3.404262917944083E-01  1.000000000000000E+00
